[{"OBJECT_NAME":"VSP ROSE","OBJECT_ID":"2024-043AC","EPOCH":"2026-03-09T21:48:06.922944","MEAN_MOTION":15.27746075,"ECCENTRICITY":0.00099339,"INCLINATION":97.5443,"RA_OF_ASC_NODE":203.927,"ARG_OF_PERICENTER":232.2702,"MEAN_ANOMALY":127.7637,"EPHEMERIS_TYPE":0,"CLASSIFICATION_TYPE":"U","NORAD_CAT_ID":59124,"ELEMENT_SET_NO":999,"REV_AT_EPOCH":11182,"BSTAR":0.00025731354,"MEAN_MOTION_DOT":6.907e-5,"MEAN_MOTION_DDOT":0},{"OBJECT_NAME":"STARLINK-32434","OBJECT_ID":"2024-207B","EPOCH":"2026-03-09T22:03:59.627232","MEAN_MOTION":15.27610225,"ECCENTRICITY":0.00026009,"INCLINATION":43.0007,"RA_OF_ASC_NODE":280.7565,"ARG_OF_PERICENTER":253.1903,"MEAN_ANOMALY":106.8663,"EPHEMERIS_TYPE":0,"CLASSIFICATION_TYPE":"U","NORAD_CAT_ID":61913,"ELEMENT_SET_NO":999,"REV_AT_EPOCH":7475,"BSTAR":0.0013969795,"MEAN_MOTION_DOT":0.00038418,"MEAN_MOTION_DDOT":0}]
